COMMENT,ORIGINATOR,NORAD_CAT_ID,OBJECT_NAME,OBJECT_TYPE,CLASSIFICATION_TYPE,INTLDES,EPOCH,EPOCH_MICROSECONDS,MEAN_MOTION,ECCENTRICITY,INCLINATION,RA_OF_ASC_NODE,ARG_OF_PERICENTER,MEAN_ANOMALY,EPHEMERIS_TYPE,ELEMENT_SET_NO,REV_AT_EPOCH,BSTAR,MEAN_MOTION_DOT,MEAN_MOTION_DDOT,FILE,TLE_LINE0,TLE_LINE1,TLE_LINE2,OBJECT_ID,OBJECT_NUMBER,SEMIMAJOR_AXIS,PERIOD,APOGEE,PERIGEE,DECAYED
GENERATED VIA SPACETRACK.ORG API,18 SPCS,33436,ASTRA 1M,PAYLOAD,U,08057A,2024-02-28 21:03:42,728832,1.00275493,0.0001286,0.0189,132.5331,291.3335,69.4615,0,999,3732,0,0.0000013,0,4201365,0 ASTRA 1M,1 33436U 08057A   24059.87757788  .00000130  00000-0  00000-0 0  9990,2 33436   0.0189 132.5331 0001286 291.3335  69.4615  1.00275493 37327,2008-057A,33436,42163.693,1436.044,35790.980,35780.135,0
GENERATED VIA SPACETRACK.ORG API,18 SPCS,44479,AMOS 17,PAYLOAD,U,19050A,2024-02-28 21:03:42,728832,1.00273864,0.000179,0.0209,129.3646,225.0975,136.6217,0,999,1677,0,0.00000119,0,4201365,0 AMOS 17,1 44479U 19050A   24059.87757788  .00000119  00000-0  00000-0 0  9991,2 44479   0.0209 129.3646 0001790 225.0975 136.6217  1.00273864 16777,2019-050A,44479,42164.149,1436.067,35793.562,35778.467,0
GENERATED VIA SPACETRACK.ORG API,18 SPCS,29055,ASTRA 1KR,PAYLOAD,U,06012A,2024-02-28 21:03:42,728832,1.00272262,0.000318,0.0893,279.4632,11.9906,201.8336,0,999,3730,0,0.00000129,0,4201365,0 ASTRA 1KR,1 29055U 06012A   24059.87757788  .00000129  00000-0  00000-0 0  9999,2 29055   0.0893 279.4632 0003180  11.9906 201.8336  1.00272262 37302,2006-012A,29055,42164.598,1436.090,35799.872,35773.055,0
GENERATED VIA SPACETRACK.ORG API,18 SPCS,41469,IRNSS 1G,PAYLOAD,U,16027A,2024-02-28 20:56:21,39936,1.00272287,0.0004906,3.1976,123.3474,289.486,188.9455,0,999,2876,0,-0.00000326,0,4201365,0 IRNSS 1G,1 41469U 16027A   24059.87246574 -.00000326  00000-0  00000-0 0  9995,2 41469   3.1976 123.3474 0004906 289.4860 188.9455  1.00272287 28764,2016-027A,41469,42164.591,1436.090,35807.142,35765.770,0
GENERATED VIA SPACETRACK.ORG API,18 SPCS,8832,TITAN 3C TRANSTAGE DEB,DEBRIS,U,76023J,2024-02-28 20:54:05,702976,0.98260222,0.0137415,20.0931,53.3251,73.4428,105.2889,0,999,10935,0,-0.00000231,0,4201365,0 TITAN 3C TRANSTAGE DEB,1 08832U 76023J   24059.87089934 -.00000231  00000-0  00000-0 0  9994,2 08832  20.0931  53.3251 0137415  73.4428 105.2889  0.98260222109358,1976-023J,8832,42738.245,1465.496,36947.397,35772.822,0
GENERATED VIA SPACETRACK.ORG API,18 SPCS,25001,TITAN 3C TRANSTAGE DEB,DEBRIS,U,68081H,2024-02-28 20:37:40,746432,1.01696986,0.0068223,1.0354,346.2683,39.4175,145.7393,0,999,10978,0,-0.00000206,0,4201365,0 TITAN 3C TRANSTAGE DEB,1 25001U 68081H   24059.85949938 -.00000206  00000-0  00000-0 0  9995,2 25001   1.0354 346.2683 0068223  39.4175 145.7393  1.01696986109788,1968-081H,25001,41769.870,1415.971,35676.701,35106.768,0
GENERATED VIA SPACETRACK.ORG API,18 SPCS,44307,YAMAL 601,PAYLOAD,U,19031A,2024-02-28 20:33:17,589312,1.00273227,0.0002504,0.0139,193.1537,153.4678,168.8447,0,999,1750,0,0.00000129,0,4201365,0 YAMAL 601,1 44307U 19031A   24059.85645358  .00000129  00000-0  00000-0 0  9998,2 44307   0.0139 193.1537 0002504 153.4678 168.8447  1.00273227 17502,2019-031A,44307,42164.328,1436.076,35796.751,35775.635,0
GENERATED VIA SPACETRACK.ORG API,18 SPCS,41384,IRNSS 1F,PAYLOAD,U,16015A,2024-02-28 20:28:31,875744,1.00274063,0.0020408,3.3161,122.033,189.9151,185.7596,0,999,2925,0,0.00000168,0,4201365,0 IRNSS 1F,1 41384U 16015A   24059.85314671  .00000168  00000-0  00000-0 0  9993,2 41384   3.3161 122.0330 0020408 189.9151 185.7596  1.00274063 29257,2016-015A,41384,42164.093,1436.064,35872.007,35699.910,0
GENERATED VIA SPACETRACK.ORG API,18 SPCS,44457,COSMOS 2539,PAYLOAD,U,19048A,2024-02-28 20:22:38,493696,1.00271685,0.000045,0.0152,124.0173,319.0975,32.6794,0,999,1681,0,0.0000009,0,4201365,0 COSMOS 2539,1 44457U 19048A   24059.84905664  .00000090  00000-0  00000-0 0  9997,2 44457   0.0152 124.0173 0000450 319.0975  32.6794  1.00271685 16812,2019-048A,44457,42164.760,1436.098,35788.522,35784.728,0
GENERATED VIA SPACETRACK.ORG API,18 SPCS,42749,ECHOSTAR 21,PAYLOAD,U,17032A,2024-02-28 20:22:08,418720,1.00270627,0.0002474,2.7312,317.5162,12.509,143.9081,0,999,2469,0,0.00000075,0,4201365,0 ECHOSTAR 21,1 42749U 17032A   24059.84870855  .00000075  00000-0  00000-0 0  9996,2 42749   2.7312 317.5162 0002474  12.5090 143.9081  1.00270627 24694,2017-032A,42749,42165.057,1436.113,35797.353,35776.490,0
GENERATED VIA SPACETRACK.ORG API,18 SPCS,33373,NIMIQ 4,PAYLOAD,U,08044A,2024-02-28 19:55:45,791904,1.00270481,0.0001789,0.0213,218.3946,116.7319,39.905,0,999,5656,0,-0.0000021,0,4201365,0 NIMIQ 4,1 33373U 08044A   24059.83039111 -.00000210  00000-0  00000-0 0  9995,2 33373   0.0213 218.3946 0001789 116.7319  39.9050  1.00270481 56564,2008-044A,33373,42165.098,1436.116,35794.506,35779.419,0
GENERATED VIA SPACETRACK.ORG API,18 SPCS,43162,SBIRS GEO 3 (USA 282),PAYLOAD,U,18009A,2024-02-28 19:33:34,971840,1.00272996,0.0001934,2.4961,331.6884,10.6796,309.7286,0,999,2242,0,0.00000138,0,4201365,0 SBIRS GEO 3 (USA 282),1 43162U 18009A   24059.81498810  .00000138  00000-0  00000-0 0  9995,2 43162   2.4961 331.6884 0001934  10.6796 309.7286  1.00272996 22420,2018-009A,43162,42164.392,1436.080,35794.412,35778.103,0
GENERATED VIA SPACETRACK.ORG API,18 SPCS,44066,S5 DEB,DEBRIS,U,19009E,2024-02-28 19:18:26,719488,0.98988012,0.0006074,4.4254,80.8153,195.0335,165.2357,0,999,1805,0,-0.00000188,0,4201938,0 S5 DEB,1 44066U 19009E   24059.80447592 -.00000188  00000-0  00000-0 0  9996,2 44066   4.4254  80.8153 0006074 195.0335 165.2357  0.98988012 18057,2019-009E,44066,42528.504,1454.722,36176.201,36124.537,0
GENERATED VIA SPACETRACK.ORG API,18 SPCS,44307,YAMAL 601,PAYLOAD,U,19031A,2024-02-28 18:50:05,964000,1.00272984,0.0002516,0.0142,193.7792,152.9365,142.8807,0,999,1749,0,0.00000129,0,4201258,0 YAMAL 601,1 44307U 19031A   24059.78479125  .00000129  00000-0  00000+0 0  9996,2 44307   0.0142 193.7792 0002516 152.9365 142.8807  1.00272984 17494,2019-031A,44307,42164.396,1436.080,35796.869,35775.652,0
GENERATED VIA SPACETRACK.ORG API,18 SPCS,41384,IRNSS 1F,PAYLOAD,U,16015A,2024-02-28 18:45:27,769824,1.00274028,0.002041,3.316,122.0363,189.9115,159.9215,0,999,2924,0,0.00000168,0,4201213,0 IRNSS 1F,1 41384U 16015A   24059.78157141  .00000168  00000-0  00000+0 0  9991,2 41384   3.3160 122.0363 0020410 189.9115 159.9215  1.00274028 29246,2016-015A,41384,42164.103,1436.065,35872.025,35699.911,0
GENERATED VIA SPACETRACK.ORG API,18 SPCS,44457,COSMOS 2539,PAYLOAD,U,19048A,2024-02-28 18:39:34,388640,1.00271664,0.0000442,0.0151,124.1369,319.2722,6.5474,0,999,1680,0,0.0000009,0,4201259,0 COSMOS 2539,1 44457U 19048A   24059.77748135  .00000090  00000-0  00000+0 0  9996,2 44457   0.0151 124.1369 0000442 319.2722   6.5474  1.00271664 16803,2019-048A,44457,42164.766,1436.099,35788.495,35784.767,0
GENERATED VIA SPACETRACK.ORG API,18 SPCS,25967,UFO 10 (USA 146),PAYLOAD,U,99063A,2024-02-28 18:29:32,889120,1.00269171,0.0003875,9.3916,31.1048,275.5946,105.8833,0,999,8892,0,-0.00000178,0,4201300,0 UFO 10 (USA 146),1 25967U 99063A   24059.77051955 -.00000178  00000-0  00000+0 0  9991,2 25967   9.3916  31.1048 0003875 275.5946 105.8833  1.00269171 88929,1999-063A,25967,42165.465,1436.134,35803.669,35770.991,0
GENERATED VIA SPACETRACK.ORG API,18 SPCS,25967,UFO 10 (USA 146),PAYLOAD,U,99063A,2024-02-28 18:29:32,889120,1.00269171,0.0003875,9.3916,31.1048,275.5946,105.8833,0,999,8893,0,-0.00000178,0,4201365,0 UFO 10 (USA 146),1 25967U 99063A   24059.77051955 -.00000178  00000-0  00000-0 0  9992,2 25967   9.3916  31.1048 0003875 275.5946 105.8833  1.00269171 88930,1999-063A,25967,42165.465,1436.134,35803.669,35770.991,0
GENERATED VIA SPACETRACK.ORG API,18 SPCS,43162,SBIRS GEO 3 (USA 282),PAYLOAD,U,18009A,2024-02-28 17:50:27,39264,1.00272973,0.0001935,2.496,331.6867,10.5633,283.9927,0,999,2242,0,0.00000138,0,4201107,0 SBIRS GEO 3 (USA 282),1 43162U 18009A   24059.74336851  .00000138  00000-0  00000+0 0  9992,2 43162   2.4960 331.6867 0001935  10.5633 283.9927  1.00272973 22420,2018-009A,43162,42164.399,1436.080,35794.423,35778.105,0
GENERATED VIA SPACETRACK.ORG API,18 SPCS,20253,FLTSATCOM 8 (USA 46),PAYLOAD,U,89077A,2024-02-28 17:18:42,497280,1.00276861,0.0006705,12.668,356.2278,348.6269,198.6657,0,999,25220,0,-0.00000355,0,4201365,0 FLTSATCOM 8 (USA 46),1 20253U 89077A   24059.72132520 -.00000355  00000-0  00000-0 0  9999,2 20253  12.6680 356.2278 0006705 348.6269 198.6657  1.00276861252200,1989-077A,20253,42163.309,1436.024,35813.445,35756.904,0
GENERATED VIA SPACETRACK.ORG API,18 SPCS,42915,TDRS 13,PAYLOAD,U,17047A,2024-02-28 16:49:40,442592,1.00272583,0.0013684,3.7328,342.3786,106.1403,310.3827,0,999,2393,0,-0.0000009,0,4201365,0 TDRS 13,1 42915U 17047A   24059.70116253 -.00000090  00000-0  00000-0 0  9995,2 42915   3.7328 342.3786 0013684 106.1403 310.3827  1.00272583 23935,2017-047A,42915,42164.508,1436.085,35844.071,35728.675,0
GENERATED VIA SPACETRACK.ORG API,18 SPCS,29162,EUTE 113 WEST A(SATMEX 6,PAYLOAD,U,06020A,2024-02-28 16:20:43,610784,1.00274302,0.0003116,0.195,99.9601,240.8412,309.451,0,999,6504,0,-0.00000029,0,4201256,0 EUTE 113 WEST A(SATMEX 6,1 29162U 06020A   24059.68106031 -.00000029  00000-0  00000+0 0  9994,2 29162   0.1950  99.9601 0003116 240.8412 309.4510  1.00274302 65049,2006-020A,29162,42164.026,1436.061,35799.030,35772.753,0
GENERATED VIA SPACETRACK.ORG API,18 SPCS,28945,SPAINSAT,PAYLOAD,U,06007A,2024-02-28 15:28:04,692000,1.00270012,0.0003281,0.0601,258.8872,58.2415,42.8274,0,999,6579,0,-0.00000207,0,4201306,0 SPAINSAT,1 28945U 06007A   24059.64449875 -.00000207  00000-0  00000+0 0  9997,2 28945   0.0601 258.8872 0003281  58.2415  42.8274  1.00270012 65793,2006-007A,28945,42165.229,1436.122,35800.928,35773.260,0
